ONEWEB-0055             
1 45443U 20020V   22279.79401701  .00000546  00000+0  15053-2 0  9995
2 45443  87.8786 289.2553 0001574  89.6465 270.4843 13.11417429125756
ONEWEB-0093             
1 45444U 20020W   22279.76932276 -.00000569  00000+0 -16401-2 0  9994
2 45444  87.8780 289.2742 0001500  90.6996 269.4304 13.11423108125819
ONEWEB-0029             
1 45445U 20020X   22279.79065973  .00000586  00000+0  16184-2 0  9994
2 45445  87.8779 289.2573 0001807  78.2016 281.9315 13.11416098125793
ONEWEB-0068             
1 45446U 20020Y   22279.53258585 -.00000277  00000+0 -81876-3 0  9990
2 45446  87.8778 289.3179 0001426  83.1367 276.9923 13.11418381125715
ONEWEB-0046             
1 45447U 20020Z   22279.75809204 -.00000526  00000+0 -15209-2 0  9998
2 45447  87.8778 289.2833 0001931  89.0092 271.1257 13.11416041125744
ONEWEB-0063             
1 45448U 20020AA  22279.78728599  .00000554  00000+0  15265-2 0  9990
2 45448  87.8772 289.2582 0002113  90.5054 269.6316 13.11417590125836
ONEWEB-0019             
1 45449U 20020AB  22279.76259472 -.00000249  00000+0 -73936-3 0  9991
2 45449  87.8783 289.2689 0001791  96.0492 264.0840 13.11417350125672
ONEWEB-0094             
1 45450U 20020AC  22279.70151473  .00000008  00000+0 -13530-4 0  9996
2 45450  87.8997 273.9227 0001801  91.2556 268.8782 13.17639985128596
ONEWEB-0087             
1 45451U 20020AD  22279.79627727  .00000515  00000+0  14175-2 0  9992
2 45451  87.8784 289.3038 0001749  76.4219 283.7104 13.11415995125727
ONEWEB-0082             
1 45452U 20020AE  22279.79850524  .00000408  00000+0  11158-2 0  9995
2 45452  87.8775 289.2287 0001362  74.6968 285.4310 13.11411783125814
ONEWEB-0050             
1 45453U 20020AF  22279.85403346  .00008545  00000+0  72580-3 0  9996
2 45453  87.5448 205.7140 0027682 158.6047 201.6349 14.97469367138940
ONEWEB-0034             
1 45454U 20020AG  22279.74015617 -.00000290  00000+0 -85548-3 0  9994
2 45454  87.8773 289.2606 0001789  83.9962 276.1370 13.11415144125727
ONEWEB-0060             
1 45455U 20020AH  22279.74801990 -.00000493  00000+0 -14271-2 0  9991
2 45455  87.8776 289.2711 0001810  88.6624 271.4711 13.11418327125688
ONEWEB-0086             
1 45456U 20020AJ  22279.76709942 -.00000104  00000+0 -33009-3 0  9998
2 45456  87.8778 289.2584 0001622  83.7292 276.4021 13.11418521125749
ONEWEB-0088             
1 45457U 20020AK  22279.58979618 -.00000371  00000+0 -10837-2 0  9997
2 45457  87.8771 289.3027 0001875  83.5741 276.5600 13.11414163125655
ONEWEB-0102             
1 47258U 20100A   22279.81280573 -.00000364  00000+0 -10467-2 0  9999
2 47258  87.8903 258.6818 0001582  93.9771 266.1538 13.12439675 87730
ONEWEB-0109             
1 47259U 20100B   22279.67091034 -.00000428  00000+0 -12256-2 0  9995
2 47259  87.8868 258.7744 0001833  83.9696 276.1641 13.12441870 87549
ONEWEB-0110             
1 47260U 20100C   22279.69420135  .00000340  00000+0  90949-3 0  9994
2 47260  87.8860 258.7449 0001565  86.9515 273.1793 13.12445670 87716
ONEWEB-0111             
1 47261U 20100D   22279.80220169 -.00000051  00000+0 -17837-3 0  9999
2 47261  87.8860 258.7059 0001652  89.9107 270.2210 13.12439389 87566
ONEWEB-0114             
1 47262U 20100E   22279.68151442 -.00000150  00000+0 -45164-3 0  9997
2 47262  87.8860 258.7537 0001911 105.9070 254.2269 13.12442517 87501
ONEWEB-0117             
1 47263U 20100F   22279.44432354 -.00000291  00000+0 -84465-3 0  9999
2 47263  87.8869 258.8239 0001762  81.1170 279.0158 13.12444086 87483
ONEWEB-0118             
1 47264U 20100G   22279.78103501  .00000405  00000+0  10892-2 0  9993
2 47264  87.8866 258.7090 0002468  99.1857 260.9551 13.12441140 87721
ONEWEB-0119             
1 47265U 20100H   22279.65609494 -.00000261  00000+0 -76227-3 0  9999
2 47265  87.8900 258.7149 0001728  82.5831 277.5494 13.12442246 87685
ONEWEB-0120             
1 47266U 20100J   22279.68573741  .00000072  00000+0  16343-3 0  9999
2 47266  87.8827 258.8277 0001950  95.7453 264.3898 13.12442517 87717
ONEWEB-0121             
1 47267U 20100K   22279.66878403 -.00000362  00000+0 -10411-2 0  9994
2 47267  87.8807 258.8306 0001814  79.2940 280.8393 13.12445061 87626
ONEWEB-0122             
1 47268U 20100L   22279.66243257 -.00000306  00000+0 -88558-3 0  9994
2 47268  87.8865 258.7557 0001705  90.1101 270.0223 13.12442019 87531
ONEWEB-0123             
1 47269U 20100M   22279.65820220 -.00000299  00000+0 -86616-3 0  9999
2 47269  87.8891 258.7278 0001856  86.0095 274.1246 13.12444254 87672
ONEWEB-0124             
1 47270U 20100N   22279.64549081  .00000130  00000+0  32703-3 0  9993
2 47270  87.8862 258.7679 0001712  72.1251 288.0064 13.12443590 87559
ONEWEB-0125             
1 47271U 20100P   22279.69844991  .00000384  00000+0  10326-2 0  9994
2 47271  87.8862 258.7720 0001885  89.7193 270.4152 13.12444868 87627
ONEWEB-0126             
1 47272U 20100Q   22279.80115311 -.00000020  00000+0 -89659-4 0  9991
2 47272  87.8862 258.7475 0001787  93.9958 266.1375 13.12433389 87706
ONEWEB-0127             
1 47273U 20100R   22279.68785464  .00000103  00000+0  24965-3 0  9998
2 47273  87.8898 258.6982 0001834  88.3617 271.7721 13.12444122 87716
ONEWEB-0128             
1 47274U 20100S   22279.70902904  .00000466  00000+0  12606-2 0  9992
2 47274  87.8871 258.7269 0001390  81.4502 278.6783 13.12441069 87734
ONEWEB-0129             
1 47275U 20100T   22279.68998005  .00000246  00000+0  64797-3 0  9992
2 47275  87.8860 258.7858 0002526 130.6469 229.4879 13.12445881 87666
ONEWEB-0130             
1 47276U 20100U   22279.63915721  .00000371  00000+0  99506-3 0  9997
2 47276  87.8862 258.7876 0001737  85.4568 274.6759 13.12443259 87621
ONEWEB-0131             
1 47277U 20100V   22279.63701869  .00000351  00000+0  94098-3 0  9993
2 47277  87.8861 258.7338 0001714  79.7904 280.3418 13.12444212 87669
ONEWEB-0132             
1 47278U 20100W   22279.66667532 -.00000393  00000+0 -11281-2 0  9995
2 47278  87.8864 258.7284 0001841  94.8708 265.2631 13.12441055 87564
ONEWEB-0133             
1 47279U 20100X   22279.68362261 -.00000157  00000+0 -47279-3 0  9994
2 47279  87.8895 258.7159 0001739  83.7163 276.4164 13.12444510 87720
ONEWEB-0134             
1 47280U 20100Y   22279.65185309 -.00000145  00000+0 -43742-3 0  9997
2 47280  87.8878 258.7387 0001498  88.4689 271.6611 13.12441499 87696
ONEWEB-0135             
1 47281U 20100Z   22279.69632569  .00000393  00000+0  10557-2 0  9997
2 47281  87.8895 258.6995 0001706  89.8226 270.3098 13.12442310 87726
ONEWEB-0136             
1 47282U 20100AA  22279.64125674  .00000304  00000+0  80895-3 0  9992
2 47282  87.8863 258.7962 0001012 108.2187 251.9052 13.12440600 87645
ONEWEB-0137             
1 47283U 20100AB  22279.67726544 -.00000247  00000+0 -72156-3 0  9998
2 47283  87.8863 258.7523 0001917  91.3105 268.8243 13.12442259 87556
ONEWEB-0138             
1 47284U 20100AC  22279.65396913 -.00000167  00000+0 -49953-3 0  9990
2 47284  87.8863 258.7685 0001691  89.8227 270.3096 13.12440885 87638
ONEWEB-0139             
1 47285U 20100AD  22279.70266823  .00000475  00000+0  12859-2 0  9997
2 47285  87.8863 258.7973 0001548  86.1077 274.0228 13.12450972 87718
ONEWEB-0140             
1 47286U 20100AE  22279.64760981  .00000105  00000+0  25683-3 0  9995
2 47286  87.8863 258.7419 0001640  87.5576 272.5740 13.12439876 87662
ONEWEB-0141             
1 47287U 20100AF  22279.66985583 -.00000367  00000+0 -10571-2 0  9996
2 47287  87.8864 258.7380 0002125  93.7630 266.3742 13.12432046 87665
ONEWEB-0142             
1 47288U 20100AG  22279.66139932 -.00000450  00000+0 -12859-2 0  9990
2 47288  87.8864 258.7887 0001968  91.2472 268.8882 13.12445172 87654
ONEWEB-0143             
1 47289U 20100AH  22279.69207874  .00000200  00000+0  52026-3 0  9997
2 47289  87.8861 258.7459 0001865  82.0336 278.1004 13.12435505 87637
ONEWEB-0144             
1 47290U 20100AJ  22279.66454273 -.00000596  00000+0 -16909-2 0  9992
2 47290  87.8863 258.7647 0001558  90.0417 270.0890 13.12442658 87550
ONEWEB-0145             
1 47291U 20100AK  22279.71115445  .00002929  00000+0  81057-2 0  9990
2 47291  87.8896 258.7098 0001418 139.3331 220.7904 13.12435846 87755
ONEWEB-0146             
1 47292U 20100AL  22279.70691709  .00000402  00000+0  10834-2 0  9991
2 47292  87.8866 258.7651 0002113  69.0928 291.0426 13.12440595 87669
ONEWEB-0147             
1 47293U 20100AM  22279.44643162 -.00000186  00000+0 -55190-3 0  9999
2 47293  87.8863 258.7850 0001438  94.2773 265.8520 13.12442999 87524
ONEWEB-0115             
1 48042U 21025A   22279.84168964  .00000336  00000+0  88629-3 0  9993
2 48042  87.9109 228.2710 0001828  72.1931 287.9397 13.13472277 76474
ONEWEB-0152             
1 48043U 21025B   22279.85438715  .00000308  00000+0  80949-3 0  9995
2 48043  87.9048 228.2498 0001733  76.7873 283.3449 13.13471349 76433
ONEWEB-0153             
1 48044U 21025C   22279.83110612  .00000120  00000+0  29310-3 0  9994
2 48044  87.9016 228.2563 0001855  79.8862 280.2476 13.13463663 76413
ONEWEB-0154             
1 48045U 21025D   22279.90515148 -.00000403  00000+0 -11379-2 0  9997
2 48045  87.8967 228.3145 0001861  78.2037 281.9301 13.13471949 76397
ONEWEB-0116             
1 48046U 21025E   22279.79514142  .00000071  00000+0  15923-3 0  9997
2 48046  87.8982 228.3210 0002043  68.9146 291.2201 13.13468247 76512
ONEWEB-0150             
1 48047U 21025F   22279.84379135  .00000318  00000+0  83644-3 0  9994
2 48047  87.9131 228.2502 0002035  85.2260 274.9101 13.13472278 76418
ONEWEB-0107             
1 48048U 21025G   22279.84592836  .00000336  00000+0  88484-3 0  9997
2 48048  87.9117 228.2596 0001932  92.7556 267.3794 13.13471519 76390
ONEWEB-0101             
1 48049U 21025H   22279.80992474 -.00000396  00000+0 -11206-2 0  9991
2 48049  87.9112 228.2837 0001769  86.3156 273.8175 13.13469831 76363
